{"type": "FeatureCollection","features": [{"type": "Feature", "geometry": {"type":"Polygon","coordinates":[[[111.5137489,-7.0257169],[111.5143869,-7.0263295],[111.5145642,-7.0261307],[111.5138825,-7.0255821],[111.5137489,-7.0257169]]]}, "properties": {"osm_id": 1474111084, "osm_type": "ways_poly", "landuse": "forest"}},{"type": "Feature", "geometry": {"type":"Polygon","coordinates":[[[111.5134979,-7.0260072],[111.5140806,-7.0265924],[111.5143247,-7.0263135],[111.5137489,-7.0257764],[111.5134979,-7.0260072]]]}, "properties": {"osm_id": 1474111085, "osm_type": "ways_poly", "landuse": "forest"}}]}